ALOS (DAICHI)           
1 28931U 06002A   25351.73419158  .00001110  00000+0  19545-3 0  9994
2 28931  98.1098 303.1864 0001361 113.5739 246.5610 14.69501788 61443
H-2A R/B                
1 28932U 06002B   25359.66733102  .00011454  00000+0  59730-3 0  9995
2 28932  98.2328 135.4743 0054851 132.7659 227.8205 15.14824413 83225
RESURS-DK 1             
1 29228U 06021A   25359.53077235  .00003053  00000+0  18237-3 0  9992
2 29228  69.9336  68.7803 0006922 247.3291 112.7143 15.12230969 76314
CZ-4B R/B               
1 29507U 06046C   25359.64068166  .00004932  00000+0  25658-3 0  9996
2 29507  97.5713  39.7437 0034415 161.6127 198.6359 15.15997966 48822
CZ-2C R/B               
1 31114U 07010B   25359.75242350  .00000161  00000+0  92898-4 0  9997
2 31114  98.3976 111.7485 0059635 148.3508 212.1277 14.20214979969227
COSMO-SKYMED 1          
1 31598U 07023A   25359.83261671  .00003320  00000+0  30235-3 0  9999
2 31598  97.8839 185.3184 0001195  77.5571 282.5783 14.95860743  3869
COSMOS 2428             
1 31792U 07029A   25359.26956748  .00000214  00000+0  14050-3 0  9990
2 31792  70.9368 359.5717 0004378   6.1543 353.9631 14.12894926953581
SL-16 R/B               
1 31793U 07029B   25359.33610036  .00000294  00000+0  17737-3 0  9999
2 31793  70.9764 328.6784 0001884 265.0965 199.0255 14.14818890954856
KORONAS-FOTON           
1 33504U 09003A   25359.47904774  .00009222  00000+0  21893-3 0  9993
2 33504  82.4310 352.9018 0013261  68.5924 291.6736 15.41436219934309
CZ-2C R/B               
1 37731U 11030B   25359.83645295  .00001406  00000+0  18463-3 0  9997
2 37731  97.8432 313.6547 0051588 229.8065 189.3893 14.80940630779160
H-2A R/B                
1 38341U 12025E   25359.82955964  .00003755  00000+0  34708-3 0  9995
2 38341  98.4615 316.0706 0044627 192.3582 167.6545 14.94525889737185
SHIJIAN-16 (SJ-16)      
1 39358U 13057A   25359.87904681  .00005885  00000+0  58069-3 0  9997
2 39358  74.9740 324.7913 0018062 289.4792  70.4444 14.92030007660492
